ZHONGXING-6D            
1 52255U 22038A   26072.17849552  .00000000  00000+0  00000+0 0  9990
2 52255   0.0313 195.5655 0002052 117.1283  47.2889  1.00265840 14465
NILESAT 301             
1 52817U 22061A   26073.92366324  .00000000  00000+0  00000+0 0  9995
2 52817   0.0228  29.5496 0005777 328.5375 139.9739  1.00269289 13799
CMS-02 (GSAT 24)        
1 52903U 22067A   26073.94151665 -.00000165  00000+0  00000+0 0  9992
2 52903   0.0185 216.3743 0002142  87.8806 290.2338  1.00270611 13668
MEASAT 3D               
1 52904U 22067B   26073.87183635 -.00000242  00000+0  00000+0 0  9993
2 52904   0.0483 329.3253 0003052  10.8022 237.7294  1.00271561 13705
SES-22                  
1 52933U 22071A   26073.75487662  .00000104  00000+0  00000+0 0  9990
2 52933   0.0161 100.7027 0000990 255.3416 309.0651  1.00273658  6577
WFOV (USA 332)          
1 52940U 22073A   26073.91470630 -.00000361  00000+0  00000+0 0  9991
2 52940   3.4673  79.7377 0001293 224.9253 316.3959  1.00269246 13423
TIANLIAN 2-03           
1 53100U 22078A   26073.92712992  .00000071  00000+0  00000+0 0  9993
2 53100   0.4318  73.6113 0003282 257.8920 185.3459  1.00271121 13606
SBIRS GEO-6 (USA 336)   
1 53355U 22092A   26073.88128307 -.00000293  00000+0  00000+0 0  9994
2 53355   3.4207 315.9667 0002039  38.7502 274.0197  1.00271493 13286
EUTELSAT KONNECT VHTS   
1 53765U 22110A   26072.28543735  .00000017  00000+0  00000+0 0  9992
2 53765   0.0582 103.6406 0002797 226.3283 306.3955  1.00270242  5873
ZHONGXING-1E            
1 53813U 22112A   26071.80185729 -.00000150  00000+0  00000+0 0  9999
2 53813   0.0554 305.0129 0002568 354.3662 241.1166  1.00274038 12881
SES-20                  
1 53960U 22123A   26072.90628869 -.00000101  00000+0  00000+0 0  9999
2 53960   0.0192 104.9887 0001720 326.8603 322.8278  1.00270457 12575
SES-21                  
1 53961U 22123B   26072.23807931  .00000069  00000+0  00000+0 0  9997
2 53961   0.0279  68.0789 0001072 275.2273 142.2575  1.00270335  6250
GALAXY 33 (G-33)        
1 54026U 22128A   26072.39905773  .00000079  00000+0  00000+0 0  9996
2 54026   0.0138 105.0382 0001794 258.0759 178.5705  1.00271687 12780
GALAXY 34 (G-34)        
1 54027U 22128B   26073.68554297  .00000000  00000+0  00000+0 0  9995
2 54027   0.0237 146.3173 0001337 208.4743 295.3742  1.00269803 12968
ANGOSAT 2               
1 54033U 22131A   26071.79024390  .00000136  00000+0  00000+0 0  9992
2 54033   0.0191 162.9381 0000617 294.1226  20.8366  1.00271033 12519
EUTELSAT HOTBIRD 13F    
1 54048U 22134A   26072.90322635  .00000086  00000+0  00000+0 0  9992
2 54048   0.0591 293.6376 0002062  73.4907 142.5494  1.00271959 12426
LDPE-2                  
1 54219U 22144A   26073.87535995 -.00000359  00000+0  00000+0 0  9999
2 54219   5.4121  64.2157 0000171 260.5668 276.7426  1.00552468 10896
