[{"OBJECT_NAME":"ZHONGXING-6D","OBJECT_ID":"2022-038A","EPOCH":"2026-03-13T04:17:02.012928","MEAN_MOTION":1.0026584,"ECCENTRICITY":0.00020526,"INCLINATION":0.0313,"RA_OF_ASC_NODE":195.5655,"ARG_OF_PERICENTER":117.1283,"MEAN_ANOMALY":47.2889,"EPHEMERIS_TYPE":0,"CLASSIFICATION_TYPE":"U","NORAD_CAT_ID":52255,"ELEMENT_SET_NO":999,"REV_AT_EPOCH":1446,"BSTAR":0,"MEAN_MOTION_DOT":0,"MEAN_MOTION_DDOT":0},{"OBJECT_NAME":"NILESAT 301","OBJECT_ID":"2022-061A","EPOCH":"2026-03-14T22:10:04.503936","MEAN_MOTION":1.00269289,"ECCENTRICITY":0.00057774,"INCLINATION":0.0228,"RA_OF_ASC_NODE":29.5496,"ARG_OF_PERICENTER":328.5375,"MEAN_ANOMALY":139.9739,"EPHEMERIS_TYPE":0,"CLASSIFICATION_TYPE":"U","NORAD_CAT_ID":52817,"ELEMENT_SET_NO":999,"REV_AT_EPOCH":1379,"BSTAR":0,"MEAN_MOTION_DOT":0,"MEAN_MOTION_DDOT":0},{"OBJECT_NAME":"CMS-02 (GSAT 24)","OBJECT_ID":"2022-067A","EPOCH":"2026-03-14T22:35:47.038560","MEAN_MOTION":1.00270611,"ECCENTRICITY":0.00021428,"INCLINATION":0.0185,"RA_OF_ASC_NODE":216.3743,"ARG_OF_PERICENTER":87.8806,"MEAN_ANOMALY":290.2338,"EPHEMERIS_TYPE":0,"CLASSIFICATION_TYPE":"U","NORAD_CAT_ID":52903,"ELEMENT_SET_NO":999,"REV_AT_EPOCH":1366,"BSTAR":0,"MEAN_MOTION_DOT":-1.65e-6,"MEAN_MOTION_DDOT":0},{"OBJECT_NAME":"MEASAT 3D","OBJECT_ID":"2022-067B","EPOCH":"2026-03-14T20:55:26.660640","MEAN_MOTION":1.00271561,"ECCENTRICITY":0.00030529,"INCLINATION":0.0483,"RA_OF_ASC_NODE":329.3253,"ARG_OF_PERICENTER":10.8022,"MEAN_ANOMALY":237.7294,"EPHEMERIS_TYPE":0,"CLASSIFICATION_TYPE":"U","NORAD_CAT_ID":52904,"ELEMENT_SET_NO":999,"REV_AT_EPOCH":1370,"BSTAR":0,"MEAN_MOTION_DOT":-2.42e-6,"MEAN_MOTION_DDOT":0},{"OBJECT_NAME":"SES-22","OBJECT_ID":"2022-071A","EPOCH":"2026-03-14T18:07:01.339968","MEAN_MOTION":1.00273658,"ECCENTRICITY":9.904e-5,"INCLINATION":0.0161,"RA_OF_ASC_NODE":100.7027,"ARG_OF_PERICENTER":255.3416,"MEAN_ANOMALY":309.0651,"EPHEMERIS_TYPE":0,"CLASSIFICATION_TYPE":"U","NORAD_CAT_ID":52933,"ELEMENT_SET_NO":999,"REV_AT_EPOCH":657,"BSTAR":0,"MEAN_MOTION_DOT":1.04e-6,"MEAN_MOTION_DDOT":0},{"OBJECT_NAME":"WFOV (USA 332)","OBJECT_ID":"2022-073A","EPOCH":"2026-03-14T21:57:10.624320","MEAN_MOTION":1.00269246,"ECCENTRICITY":0.00012935,"INCLINATION":3.4673,"RA_OF_ASC_NODE":79.7377,"ARG_OF_PERICENTER":224.9253,"MEAN_ANOMALY":316.3959,"EPHEMERIS_TYPE":0,"CLASSIFICATION_TYPE":"U","NORAD_CAT_ID":52940,"ELEMENT_SET_NO":999,"REV_AT_EPOCH":1342,"BSTAR":0,"MEAN_MOTION_DOT":-3.61e-6,"MEAN_MOTION_DDOT":0},{"OBJECT_NAME":"TIANLIAN 2-03","OBJECT_ID":"2022-078A","EPOCH":"2026-03-14T22:15:04.025088","MEAN_MOTION":1.00271121,"ECCENTRICITY":0.00032821,"INCLINATION":0.4318,"RA_OF_ASC_NODE":73.6113,"ARG_OF_PERICENTER":257.892,"MEAN_ANOMALY":185.3459,"EPHEMERIS_TYPE":0,"CLASSIFICATION_TYPE":"U","NORAD_CAT_ID":53100,"ELEMENT_SET_NO":999,"REV_AT_EPOCH":1360,"BSTAR":0,"MEAN_MOTION_DOT":7.1e-7,"MEAN_MOTION_DDOT":0},{"OBJECT_NAME":"SBIRS GEO-6 (USA 336)","OBJECT_ID":"2022-092A","EPOCH":"2026-03-14T21:09:02.857248","MEAN_MOTION":1.00271493,"ECCENTRICITY":0.00020394,"INCLINATION":3.4207,"RA_OF_ASC_NODE":315.9667,"ARG_OF_PERICENTER":38.7502,"MEAN_ANOMALY":274.0197,"EPHEMERIS_TYPE":0,"CLASSIFICATION_TYPE":"U","NORAD_CAT_ID":53355,"ELEMENT_SET_NO":999,"REV_AT_EPOCH":1328,"BSTAR":0,"MEAN_MOTION_DOT":-2.93e-6,"MEAN_MOTION_DDOT":0},{"OBJECT_NAME":"EUTELSAT KONNECT VHTS","OBJECT_ID":"2022-110A","EPOCH":"2026-03-13T06:51:01.787040","MEAN_MOTION":1.00270242,"ECCENTRICITY":0.00027978,"INCLINATION":0.0582,"RA_OF_ASC_NODE":103.6406,"ARG_OF_PERICENTER":226.3283,"MEAN_ANOMALY":306.3955,"EPHEMERIS_TYPE":0,"CLASSIFICATION_TYPE":"U","NORAD_CAT_ID":53765,"ELEMENT_SET_NO":999,"REV_AT_EPOCH":587,"BSTAR":0,"MEAN_MOTION_DOT":1.7e-7,"MEAN_MOTION_DDOT":0},{"OBJECT_NAME":"ZHONGXING-1E","OBJECT_ID":"2022-112A","EPOCH":"2026-03-12T19:14:40.469856","MEAN_MOTION":1.00274038,"ECCENTRICITY":0.00025683,"INCLINATION":0.0554,"RA_OF_ASC_NODE":305.0129,"ARG_OF_PERICENTER":354.3662,"MEAN_ANOMALY":241.1166,"EPHEMERIS_TYPE":0,"CLASSIFICATION_TYPE":"U","NORAD_CAT_ID":53813,"ELEMENT_SET_NO":999,"REV_AT_EPOCH":1288,"BSTAR":0,"MEAN_MOTION_DOT":-1.5e-6,"MEAN_MOTION_DDOT":0},{"OBJECT_NAME":"SES-20","OBJECT_ID":"2022-123A","EPOCH":"2026-03-13T21:45:03.342816","MEAN_MOTION":1.00270457,"ECCENTRICITY":0.00017204,"INCLINATION":0.0192,"RA_OF_ASC_NODE":104.9887,"ARG_OF_PERICENTER":326.8603,"MEAN_ANOMALY":322.8278,"EPHEMERIS_TYPE":0,"CLASSIFICATION_TYPE":"U","NORAD_CAT_ID":53960,"ELEMENT_SET_NO":999,"REV_AT_EPOCH":1257,"BSTAR":0,"MEAN_MOTION_DOT":-1.01e-6,"MEAN_MOTION_DDOT":0},{"OBJECT_NAME":"SES-21","OBJECT_ID":"2022-123B","EPOCH":"2026-03-13T05:42:50.052384","MEAN_MOTION":1.00270335,"ECCENTRICITY":0.00010721,"INCLINATION":0.0279,"RA_OF_ASC_NODE":68.0789,"ARG_OF_PERICENTER":275.2273,"MEAN_ANOMALY":142.2575,"EPHEMERIS_TYPE":0,"CLASSIFICATION_TYPE":"U","NORAD_CAT_ID":53961,"ELEMENT_SET_NO":999,"REV_AT_EPOCH":625,"BSTAR":0,"MEAN_MOTION_DOT":6.9e-7,"MEAN_MOTION_DDOT":0},{"OBJECT_NAME":"GALAXY 33 (G-33)","OBJECT_ID":"2022-128A","EPOCH":"2026-03-13T09:34:38.587872","MEAN_MOTION":1.00271687,"ECCENTRICITY":0.00017947,"INCLINATION":0.0138,"RA_OF_ASC_NODE":105.0382,"ARG_OF_PERICENTER":258.0759,"MEAN_ANOMALY":178.5705,"EPHEMERIS_TYPE":0,"CLASSIFICATION_TYPE":"U","NORAD_CAT_ID":54026,"ELEMENT_SET_NO":999,"REV_AT_EPOCH":1278,"BSTAR":0,"MEAN_MOTION_DOT":7.9e-7,"MEAN_MOTION_DDOT":0},{"OBJECT_NAME":"GALAXY 34 (G-34)","OBJECT_ID":"2022-128B","EPOCH":"2026-03-14T16:27:10.912608","MEAN_MOTION":1.00269803,"ECCENTRICITY":0.00013379,"INCLINATION":0.0237,"RA_OF_ASC_NODE":146.3173,"ARG_OF_PERICENTER":208.4743,"MEAN_ANOMALY":295.3742,"EPHEMERIS_TYPE":0,"CLASSIFICATION_TYPE":"U","NORAD_CAT_ID":54027,"ELEMENT_SET_NO":999,"REV_AT_EPOCH":1296,"BSTAR":0,"MEAN_MOTION_DOT":0,"MEAN_MOTION_DDOT":0},{"OBJECT_NAME":"ANGOSAT 2","OBJECT_ID":"2022-131A","EPOCH":"2026-03-12T18:57:57.072960","MEAN_MOTION":1.00271033,"ECCENTRICITY":6.177e-5,"INCLINATION":0.0191,"RA_OF_ASC_NODE":162.9381,"ARG_OF_PERICENTER":294.1226,"MEAN_ANOMALY":20.8366,"EPHEMERIS_TYPE":0,"CLASSIFICATION_TYPE":"U","NORAD_CAT_ID":54033,"ELEMENT_SET_NO":999,"REV_AT_EPOCH":1251,"BSTAR":0,"MEAN_MOTION_DOT":1.36e-6,"MEAN_MOTION_DDOT":0},{"OBJECT_NAME":"EUTELSAT HOTBIRD 13F","OBJECT_ID":"2022-134A","EPOCH":"2026-03-13T21:40:38.756640","MEAN_MOTION":1.00271959,"ECCENTRICITY":0.00020626,"INCLINATION":0.0591,"RA_OF_ASC_NODE":293.6376,"ARG_OF_PERICENTER":73.4907,"MEAN_ANOMALY":142.5494,"EPHEMERIS_TYPE":0,"CLASSIFICATION_TYPE":"U","NORAD_CAT_ID":54048,"ELEMENT_SET_NO":999,"REV_AT_EPOCH":1242,"BSTAR":0,"MEAN_MOTION_DOT":8.6e-7,"MEAN_MOTION_DDOT":0},{"OBJECT_NAME":"LDPE-2","OBJECT_ID":"2022-144A","EPOCH":"2026-03-14T21:00:31.099680","MEAN_MOTION":1.00552468,"ECCENTRICITY":1.719e-5,"INCLINATION":5.4121,"RA_OF_ASC_NODE":64.2157,"ARG_OF_PERICENTER":260.5668,"MEAN_ANOMALY":276.7426,"EPHEMERIS_TYPE":0,"CLASSIFICATION_TYPE":"U","NORAD_CAT_ID":54219,"ELEMENT_SET_NO":999,"REV_AT_EPOCH":1089,"BSTAR":0,"MEAN_MOTION_DOT":-3.59e-6,"MEAN_MOTION_DDOT":0}]
